GTO DEB                 
1 62990U 24001A   146.00000000  .00000000  00000-0  00000-0 0  1743
2 62990  36.5230 247.3740 6995541 287.9866 178.5066  1.94626250 95008
GTO DEB                 
1 62991U 24001A   146.00000000  .00000000  00000-0  00000-0 0  8902
2 62991  33.9311  40.8538 7033368 238.0841 127.0617  1.74877372 46922
GTO DEB                 
1 62992U 24001A   146.00000000  .00000000  00000-0  00000-0 0  6160
2 62992  31.1808 337.4386 6972534 203.5512  22.2905  2.72533578 73529
GTO DEB                 
1 62993U 24001A   146.00000000  .00000000  00000-0  00000-0 0  7908
2 62993   2.2896  35.6365 6791048  73.9316 202.8932  2.69207118 85700
GTO DEB                 
1 62994U 24001A   146.00000000  .00000000  00000-0  00000-0 0  9543
2 62994  36.4826  32.0677 7107613 128.2220  54.3091  1.13135138 66724
GTO DEB                 
1 62995U 24001A   146.00000000  .00000000  00000-0  00000-0 0  8122
2 62995   9.8894  89.3241 6958856  34.0194  69.9315  1.35027549 42398
GTO DEB                 
1 62996U 24001A   146.00000000  .00000000  00000-0  00000-0 0  1024
2 62996  22.6594 338.6005 7201253 265.3220 242.4090  1.27204886 18769
GTO DEB                 
1 62997U 24001A   146.00000000  .00000000  00000-0  00000-0 0  9757
2 62997   1.6324 323.2065 6998307 203.1602 126.3196  1.96676492 45066
GTO DEB                 
1 62998U 24001A   146.00000000  .00000000  00000-0  00000-0 0  3453
2 62998  13.2186 220.1541 6744861  21.6431 174.8307  2.25991710 13444
GTO DEB                 
1 62999U 24001A   146.00000000  .00000000  00000-0  00000-0 0  9040
2 62999  29.1922 332.6448 7059988 263.1032 269.6646  1.64309835 79095
